{
  "type": "FeatureCollection",
  "features": [
    {
      "type": "Feature",
      "properties": {
        "norad_id": 66659,
        "name": "JACK K",
        "group": "last-30-days",
        "lat": -40.728482695677236,
        "lon": 94.52152022687257,
        "alt_km": 588.5582709714909,
        "timestamp": "2025-12-20T03:42:46.119214+00:00",
        "meta_object_name": "JACK K",
        "meta_object_id": "2025-274K",
        "meta_epoch": "2025-12-19T09:01:45.234336",
        "meta_mean_motion": 14.92845388,
        "meta_eccentricity": 0.001198,
        "meta_inclination": 97.7401,
        "meta_ra_of_asc_node": 280.481,
        "meta_arg_of_pericenter": 255.6276,
        "meta_mean_anomaly": 104.3614,
        "meta_ephemeris_type": 0,
        "meta_classification_type": "U",
        "meta_norad_cat_id": 66659,
        "meta_element_set_no": 999,
        "meta_rev_at_epoch": 339,
        "meta_bstar": 0.00014908,
        "meta_mean_motion_dot": 1.489e-05,
        "meta_mean_motion_ddot": 0,
        "tle_line1": "1 66659U 25274K   25353.37621799  .00001489  00000+0  14908-3 0  9990",
        "tle_line2": "2 66659  97.7401 280.4810 0011980 255.6276 104.3614 14.92845388  3393"
      },
      "geometry": {
        "type": "Point",
        "coordinates": [
          94.52152022687257,
          -40.728482695677236
        ]
      }
    },
    {
      "type": "Feature",
      "properties": {
        "norad_id": 66660,
        "name": "K-HERO",
        "group": "last-30-days",
        "lat": -53.143296419249495,
        "lon": 90.79910010599446,
        "alt_km": 587.370931274846,
        "timestamp": "2025-12-20T03:42:46.119224+00:00",
        "meta_object_name": "K-HERO",
        "meta_object_id": "2025-274L",
        "meta_epoch": "2025-12-19T08:58:28.231104",
        "meta_mean_motion": 14.92997006,
        "meta_eccentricity": 0.0012565,
        "meta_inclination": 97.7404,
        "meta_ra_of_asc_node": 280.4848,
        "meta_arg_of_pericenter": 256.3531,
        "meta_mean_anomaly": 103.6289,
        "meta_ephemeris_type": 0,
        "meta_classification_type": "U",
        "meta_norad_cat_id": 66660,
        "meta_element_set_no": 999,
        "meta_rev_at_epoch": 339,
        "meta_bstar": 0.00016428,
        "meta_mean_motion_dot": 1.653e-05,
        "meta_mean_motion_ddot": 0,
        "tle_line1": "1 66660U 25274L   25353.37393786  .00001653  00000+0  16428-3 0  9996",
        "tle_line2": "2 66660  97.7404 280.4848 0012565 256.3531 103.6289 14.92997006  3396"
      },
      "geometry": {
        "type": "Point",
        "coordinates": [
          90.79910010599446,
          -53.143296419249495
        ]
      }
    },
    {
      "type": "Feature",
      "properties": {
        "norad_id": 66661,
        "name": "SNUGLITE-III",
        "group": "last-30-days",
        "lat": -64.92159053868743,
        "lon": 84.36052613796146,
        "alt_km": 586.3459123584889,
        "timestamp": "2025-12-20T03:42:46.119236+00:00",
        "meta_object_name": "SNUGLITE-III",
        "meta_object_id": "2025-274M",
        "meta_epoch": "2025-12-19T04:05:47.445792",
        "meta_mean_motion": 14.93131354,
        "meta_eccentricity": 0.00131617,
        "meta_inclination": 97.7404,
        "meta_ra_of_asc_node": 280.2891,
        "meta_arg_of_pericenter": 258.3586,
        "meta_mean_anomaly": 101.6156,
        "meta_ephemeris_type": 0,
        "meta_classification_type": "U",
        "meta_norad_cat_id": 66661,
        "meta_element_set_no": 999,
        "meta_rev_at_epoch": 336,
        "meta_bstar": 0.00017599835,
        "meta_mean_motion_dot": 1.781e-05,
        "meta_mean_motion_ddot": 0,
        "tle_line1": "1 66661U 25274M   25353.17068803  .00001781  00000+0  17600-3 0  9999",
        "tle_line2": "2 66661  97.7404 280.2891 0013161 258.3586 101.6156 14.93131354  3363"
      },
      "geometry": {
        "type": "Point",
        "coordinates": [
          84.36052613796146,
          -64.92159053868743
        ]
      }
    },
    {
      "type": "Feature",
      "properties": {
        "norad_id": 66662,
        "name": "2025-274N",
        "group": "last-30-days",
        "lat": -69.42552633105316,
        "lon": 80.0142013922097,
        "alt_km": 585.8112140640933,
        "timestamp": "2025-12-20T03:42:46.119273+00:00",
        "meta_object_name": "2025-274N",
        "meta_object_id": "2025-274N",
        "meta_epoch": "2025-12-19T18:33:01.996128",
        "meta_mean_motion": 14.93187641,
        "meta_eccentricity": 0.0013627,
        "meta_inclination": 97.7406,
        "meta_ra_of_asc_node": 280.884,
        "meta_arg_of_pericenter": 255.8847,
        "meta_mean_anomaly": 104.0858,
        "meta_ephemeris_type": 0,
        "meta_classification_type": "U",
        "meta_norad_cat_id": 66662,
        "meta_element_set_no": 999,
        "meta_rev_at_epoch": 345,
        "meta_bstar": 0.00014907,
        "meta_mean_motion_dot": 1.502e-05,
        "meta_mean_motion_ddot": 0,
        "tle_line1": "1 66662U 25274N   25353.77293977  .00001502  00000+0  14907-3 0  9996",
        "tle_line2": "2 66662  97.7406 280.8840 0013627 255.8847 104.0858 14.93187641  3451"
      },
      "geometry": {
        "type": "Point",
        "coordinates": [
          80.0142013922097,
          -69.42552633105316
        ]
      }
    },
    {
      "type": "Feature",
      "properties": {
        "norad_id": 66663,
        "name": "KSLV-II R/B",
        "group": "last-30-days",
        "lat": -63.72078146912902,
        "lon": 85.43595182253782,
        "alt_km": 556.0219168398071,
        "timestamp": "2025-12-20T03:42:46.119285+00:00",
        "meta_object_name": "KSLV-II R/B",
        "meta_object_id": "2025-274P",
        "meta_epoch": "2025-12-19T10:34:51.191328",
        "meta_mean_motion": 14.9743123,
        "meta_eccentricity": 0.0056856,
        "meta_inclination": 97.7415,
        "meta_ra_of_asc_node": 280.7205,
        "meta_arg_of_pericenter": 296.2719,
        "meta_mean_anomaly": 63.2667,
        "meta_ephemeris_type": 0,
        "meta_classification_type": "U",
        "meta_norad_cat_id": 66663,
        "meta_element_set_no": 999,
        "meta_rev_at_epoch": 341,
        "meta_bstar": 0.00065743,
        "meta_mean_motion_dot": 7.848e-05,
        "meta_mean_motion_ddot": 0,
        "tle_line1": "1 66663U 25274P   25353.44087027  .00007848  00000+0  65743-3 0  9991",
        "tle_line2": "2 66663  97.7415 280.7205 0056856 296.2719  63.2667 14.97431230  3414"
      },
      "geometry": {
        "type": "Point",
        "coordinates": [
          85.43595182253782,
          -63.72078146912902
        ]
      }
    },
    {
      "type": "Feature",
      "properties": {
        "norad_id": 66664,
        "name": "SOYUZ-MS 28",
        "group": "last-30-days",
        "lat": 16.72162676274439,
        "lon": 119.52675917395561,
        "alt_km": 416.64364308012864,
        "timestamp": "2025-12-20T03:42:46.119296+00:00",
        "meta_object_name": "SOYUZ-MS 28",
        "meta_object_id": "2025-275A",
        "meta_epoch": "2025-12-19T10:35:44.374848",
        "meta_mean_motion": 15.49667075,
        "meta_eccentricity": 0.0003173,
        "meta_inclination": 51.6317,
        "meta_ra_of_asc_node": 109.2912,
        "meta_arg_of_pericenter": 271.328,
        "meta_mean_anomaly": 88.7345,
        "meta_ephemeris_type": 0,
        "meta_classification_type": "U",
        "meta_norad_cat_id": 66664,
        "meta_element_set_no": 999,
        "meta_rev_at_epoch": 348,
        "meta_bstar": 0.00012809,
        "meta_mean_motion_dot": 6.778e-05,
        "meta_mean_motion_ddot": 0,
        "tle_line1": "1 66664U 25275A   25353.44148582  .00006778  00000+0  12809-3 0  9993",
        "tle_line2": "2 66664  51.6317 109.2912 0003173 271.3280  88.7345 15.49667075  3484"
      },
      "geometry": {
        "type": "Point",
        "coordinates": [
          119.52675917395561,
          16.72162676274439
        ]
      }
    },
    {
      "type": "Feature",
      "properties": {
        "norad_id": 66666,
        "name": "TRANSPORTER-15 A",
        "group": "last-30-days",
        "lat": -53.6781825148496,
        "lon": 76.53657451624156,
        "alt_km": 573.5099216682138,
        "timestamp": "2025-12-20T03:42:46.119306+00:00",
        "meta_object_name": "TRANSPORTER-15 A",
        "meta_object_id": "2025-276A",
        "meta_epoch": "2025-12-19T15:08:58.947648",
        "meta_mean_motion": 15.00323115,
        "meta_eccentricity": 0.0003626,
        "meta_inclination": 97.6579,
        "meta_ra_of_asc_node": 65.4755,
        "meta_arg_of_pericenter": 203.9706,
        "meta_mean_anomaly": 156.135,
        "meta_ephemeris_type": 0,
        "meta_classification_type": "U",
        "meta_norad_cat_id": 66666,
        "meta_element_set_no": 999,
        "meta_rev_at_epoch": 312,
        "meta_bstar": 0.00016654,
        "meta_mean_motion_dot": 2.029e-05,
        "meta_mean_motion_ddot": 0,
        "tle_line1": "1 66666U 25276A   25353.63123782  .00002029  00000+0  16654-3 0  9999",
        "tle_line2": "2 66666  97.6579  65.4755 0003626 203.9706 156.1350 15.00323115  3129"
      },
      "geometry": {
        "type": "Point",
        "coordinates": [
          76.53657451624156,
          -53.6781825148496
        ]
      }
    }
  ]
}